{
  "type": "FeatureCollection",
  "features": [
    {
      "type": "Feature",
      "properties": {
        "norad_id": 64903,
        "name": "CO3D 1",
        "group": "resource",
        "lat": -43.99442254574722,
        "lon": 83.5444406679489,
        "alt_km": 512.2118558971379,
        "timestamp": "2025-12-26T05:31:12.157964+00:00",
        "meta_object_name": "CO3D 1",
        "meta_object_id": "2025-156E",
        "meta_epoch": "2025-12-25T21:48:59.687424",
        "meta_mean_motion": 15.20203044,
        "meta_eccentricity": 8.564e-05,
        "meta_inclination": 97.4338,
        "meta_ra_of_asc_node": 75.9859,
        "meta_arg_of_pericenter": 71.7297,
        "meta_mean_anomaly": 288.4031,
        "meta_ephemeris_type": 0,
        "meta_classification_type": "U",
        "meta_norad_cat_id": 64903,
        "meta_element_set_no": 999,
        "meta_rev_at_epoch": 2320,
        "meta_bstar": 0.00029145633,
        "meta_mean_motion_dot": 6.247e-05,
        "meta_mean_motion_ddot": 0,
        "tle_line1": "1 64903U 25156E   25359.90902416  .00006247  00000+0  29146-3 0  9999",
        "tle_line2": "2 64903  97.4338  75.9859 0000856  71.7297 288.4031 15.20203044 23207"
      },
      "geometry": {
        "type": "Point",
        "coordinates": [
          83.5444406679489,
          -43.99442254574722
        ]
      }
    },
    {
      "type": "Feature",
      "properties": {
        "norad_id": 66514,
        "name": "SENTINEL-6B",
        "group": "resource",
        "lat": 17.945904250922066,
        "lon": 142.69465038821676,
        "alt_km": 1339.154170081637,
        "timestamp": "2025-12-26T05:31:12.157973+00:00",
        "meta_object_name": "SENTINEL-6B",
        "meta_object_id": "2025-264A",
        "meta_epoch": "2025-12-25T18:10:28.373376",
        "meta_mean_motion": 12.80929561,
        "meta_eccentricity": 0.00079022,
        "meta_inclination": 66.0399,
        "meta_ra_of_asc_node": 135.3964,
        "meta_arg_of_pericenter": 269.9783,
        "meta_mean_anomaly": 90.0326,
        "meta_ephemeris_type": 0,
        "meta_classification_type": "U",
        "meta_norad_cat_id": 66514,
        "meta_element_set_no": 999,
        "meta_rev_at_epoch": 495,
        "meta_bstar": 6.3134768e-05,
        "meta_mean_motion_dot": -4.6e-07,
        "meta_mean_motion_ddot": 0,
        "tle_line1": "1 66514U 25264A   25359.75727284 -.00000046  00000+0  63135-4 0  9999",
        "tle_line2": "2 66514  66.0399 135.3964 0007902 269.9783  90.0326 12.80929561  4951"
      },
      "geometry": {
        "type": "Point",
        "coordinates": [
          142.69465038821676,
          17.945904250922066
        ]
      }
    }
  ]
}